[{"OBJECT_NAME":"STARLINK-35982","OBJECT_ID":"2025-280H","EPOCH":"2026-03-09T21:27:09.755424","MEAN_MOTION":14.98311944,"ECCENTRICITY":0.00028949,"INCLINATION":70.0018,"RA_OF_ASC_NODE":334.0542,"ARG_OF_PERICENTER":276.8858,"MEAN_ANOMALY":83.1972,"EPHEMERIS_TYPE":0,"CLASSIFICATION_TYPE":"U","NORAD_CAT_ID":66828,"ELEMENT_SET_NO":999,"REV_AT_EPOCH":1610,"BSTAR":0.00020800012,"MEAN_MOTION_DOT":2.389e-5,"MEAN_MOTION_DDOT":0},{"OBJECT_NAME":"RAPIDEYE 5","OBJECT_ID":"2008-040B","EPOCH":"2026-03-09T15:17:22.403904","MEAN_MOTION":15.02179038,"ECCENTRICITY":0.0014834,"INCLINATION":97.3944,"RA_OF_ASC_NODE":91.3825,"ARG_OF_PERICENTER":86.9831,"MEAN_ANOMALY":273.3091,"EPHEMERIS_TYPE":0,"CLASSIFICATION_TYPE":"U","NORAD_CAT_ID":33313,"ELEMENT_SET_NO":999,"REV_AT_EPOCH":95055,"BSTAR":0.00014028,"MEAN_MOTION_DOT":1.794e-5,"MEAN_MOTION_DDOT":0}]
